GLOBALSTAR M035         
1 25851U 99037A   24139.93594459 -.00000071  00000+0 -26606-3 0  9998
2 25851  51.9932 214.1759 0013183  65.0770 105.6923 11.04530348 52699
GLOBALSTAR M032         
1 25852U 99037B   24139.78900413 -.00000027  00000+0  12865-2 0  9994
2 25852  51.9966  66.9104 0009445 222.2530 137.7543 11.19052513 90630
GLOBALSTAR M051         
1 25853U 99037C   24139.63392451 -.00000046  00000+0  63728-3 0  9992
2 25853  51.9798 272.6956 0001444 201.6010 158.4740 11.42196815 87309
GLOBALSTAR M030         
1 25854U 99037D   24139.91700643 -.00000048  00000+0  56553-3 0  9990
2 25854  51.9860 103.1865 0004005  59.6015 300.5198 11.55096004104488
GLOBALSTAR M048         
1 25872U 99041A   24139.90236725 -.00000046  00000+0  64943-3 0  9999
2 25872  51.9344 191.8374 0013846 222.1377 308.8345 11.33846327 80255
GLOBALSTAR M026         
1 25873U 99041B   24139.86126551 -.00000095  00000+0 -11353-2 0  9991
2 25873  52.0038 336.4519 0001004 341.0509 120.9311 11.06837018104820
GLOBALSTAR M043         
1 25874U 99041C   24139.72855447 -.00000083  00000+0 -44560-3 0  9994
2 25874  51.9409 284.1718 0012194   2.2176  10.6470 11.25681742 78451
GLOBALSTAR M028         
1 25875U 99041D   24139.80307025 -.00000057  00000+0  27926-3 0  9995
2 25875  51.9631 289.0229 0062643 294.9709  64.4653 12.50555858140835
